{"type": "FeatureCollection", "features": [ {"type": "Feature", "properties": {"norad_id": 66726, "name": "FLOCK 4H-23", "group": "last-30-days", "lat": -48.04103901636717, "lon": 75.2213347073611, "alt_km": 518.144068655477, "timestamp": "2025-12-21T05:44:50.290826+00:00", "meta": {"OBJECT_NAME": "FLOCK 4H-23", "OBJECT_ID": "2025-276BN", "EPOCH": "2025-12-20T15:43:02.743104", "MEAN_MOTION": 15.17384434, "ECCENTRICITY": 0.00049077, "INCLINATION": 97.4448, "RA_OF_ASC_NODE": 66.2842, "ARG_OF_PERICENTER": 262.8511, "MEAN_ANOMALY": 97.2165, "EPHEMERIS_TYPE": 0, "CLASSIFICATION_TYPE": "U", "NORAD_CAT_ID": 66726, "ELEMENT_SET_NO": 999, "REV_AT_EPOCH": 332, "BSTAR": 0.0047691348, "MEAN_MOTION_DOT": 0.00096418, "MEAN_MOTION_DDOT": 0}, "tle": {"line1": "1 66726U 25276BN  25354.65489286  .00096418  00000+0  47691-2 0  9992", "line2": "2 66726  97.4448  66.2842 0004907 262.8511  97.2165 15.17384434  3326"}}, "geometry": {"type": "Point", "coordinates": [75.2213347073611, -48.04103901636717]}}, {"type": "Feature", "properties": {"norad_id": 66727, "name": "FLOCK 4H-24", "group": "last-30-days", "lat": -40.391098920722385, "lon": 73.25176293053853, "alt_km": 519.2815591142407, "timestamp": "2025-12-21T05:44:50.290837+00:00", "meta": {"OBJECT_NAME": "FLOCK 4H-24", "OBJECT_ID": "2025-276BP", "EPOCH": "2025-12-20T22:00:46.797984", "MEAN_MOTION": 15.17306267, "ECCENTRICITY": 0.00027824, "INCLINATION": 97.4446, "RA_OF_ASC_NODE": 66.5477, "ARG_OF_PERICENTER": 272.5824, "MEAN_ANOMALY": 87.5091, "EPHEMERIS_TYPE": 0, "CLASSIFICATION_TYPE": "U", "NORAD_CAT_ID": 66727, "ELEMENT_SET_NO": 999, "REV_AT_EPOCH": 336, "BSTAR": 0.00030413409, "MEAN_MOTION_DOT": 5.997e-05, "MEAN_MOTION_DDOT": 0}, "tle": {"line1": "1 66727U 25276BP  25354.91720831  .00005997  00000+0  30413-3 0  9993", "line2": "2 66727  97.4446  66.5477 0002782 272.5824  87.5091 15.17306267  3368"}}, "geometry": {"type": "Point", "coordinates": [73.25176293053853, -40.391098920722385]}}, {"type": "Feature", "properties": {"norad_id": 66728, "name": "FLOCK 4H-25", "group": "last-30-days", "lat": 30.646198170244272, "lon": 62.438601600690916, "alt_km": 509.63647137361204, "timestamp": "2025-12-21T05:44:50.290847+00:00", "meta": {"OBJECT_NAME": "FLOCK 4H-25", "OBJECT_ID": "2025-276BQ", "EPOCH": "2025-12-20T13:47:35.107296", "MEAN_MOTION": 15.18185501, "ECCENTRICITY": 0.0001583, "INCLINATION": 97.4408, "RA_OF_ASC_NODE": 66.2259, "ARG_OF_PERICENTER": 117.7402, "MEAN_ANOMALY": 242.3992, "EPHEMERIS_TYPE": 0, "CLASSIFICATION_TYPE": "U", "NORAD_CAT_ID": 66728, "ELEMENT_SET_NO": 999, "REV_AT_EPOCH": 259, "BSTAR": 0.00031939, "MEAN_MOTION_DOT": 6.463e-05, "MEAN_MOTION_DDOT": 0}, "tle": {"line1": "1 66728U 25276BQ  25354.57471189  .00006463  00000+0  31939-3 0  9998", "line2": "2 66728  97.4408  66.2259 0001583 117.7402 242.3992 15.18185501  2594"}}, "geometry": {"type": "Point", "coordinates": [62.438601600690916, 30.646198170244272]}}, {"type": "Feature", "properties": {"norad_id": 66729, "name": "FLOCK 4H-26", "group": "last-30-days", "lat": -56.28036962673964, "lon": 78.13382953531425, "alt_km": 519.4859364843014, "timestamp": "2025-12-21T05:44:50.290858+00:00", "meta": {"OBJECT_NAME": "FLOCK 4H-26", "OBJECT_ID": "2025-276BR", "EPOCH": "2025-12-20T11:00:10.417824", "MEAN_MOTION": 15.171282, "ECCENTRICITY": 0.0003552, "INCLINATION": 97.4406, "RA_OF_ASC_NODE": 66.0747, "ARG_OF_PERICENTER": 274.9943, "MEAN_ANOMALY": 85.0884, "EPHEMERIS_TYPE": 0, "CLASSIFICATION_TYPE": "U", "NORAD_CAT_ID": 66729, "ELEMENT_SET_NO": 999, "REV_AT_EPOCH": 329, "BSTAR": 0.00040395568, "MEAN_MOTION_DOT": 7.949e-05, "MEAN_MOTION_DDOT": 0}, "tle": {"line1": "1 66729U 25276BR  25354.45845391  .00007949  00000+0  40396-3 0  9993", "line2": "2 66729  97.4406  66.0747 0003552 274.9943  85.0884 15.17128200  3299"}}, "geometry": {"type": "Point", "coordinates": [78.13382953531425, -56.28036962673964]}}, {"type": "Feature", "properties": {"norad_id": 66730, "name": "FLOCK 4H-27", "group": "last-30-days", "lat": 19.87070409428358, "lon": 64.16105199049774, "alt_km": 512.0713104478973, "timestamp": "2025-12-21T05:44:50.290869+00:00", "meta": {"OBJECT_NAME": "FLOCK 4H-27", "OBJECT_ID": "2025-276BS", "EPOCH": "2025-12-20T18:35:07.520640", "MEAN_MOTION": 15.18055042, "ECCENTRICITY": 0.00011187, "INCLINATION": 97.4382, "RA_OF_ASC_NODE": 66.4103, "ARG_OF_PERICENTER": 126.2787, "MEAN_ANOMALY": 233.855, "EPHEMERIS_TYPE": 0, "CLASSIFICATION_TYPE": "U", "NORAD_CAT_ID": 66730, "ELEMENT_SET_NO": 999, "REV_AT_EPOCH": 334, "BSTAR": 0.00029233336, "MEAN_MOTION_DOT": 5.887e-05, "MEAN_MOTION_DDOT": 0}, "tle": {"line1": "1 66730U 25276BS  25354.77439260  .00005887  00000+0  29233-3 0  9990", "line2": "2 66730  97.4382  66.4103 0001118 126.2787 233.8550 15.18055042  3348"}}, "geometry": {"type": "Point", "coordinates": [64.16105199049774, 19.87070409428358]}}, {"type": "Feature", "properties": {"norad_id": 66731, "name": "FLOCK 4H-28", "group": "last-30-days", "lat": -54.560526115447125, "lon": 77.41728988938016, "alt_km": 519.7668484427768, "timestamp": "2025-12-21T05:44:50.290879+00:00", "meta": {"OBJECT_NAME": "FLOCK 4H-28", "OBJECT_ID": "2025-276BT", "EPOCH": "2025-12-20T17:19:36.187104", "MEAN_MOTION": 15.17112963, "ECCENTRICITY": 0.00032044, "INCLINATION": 97.4392, "RA_OF_ASC_NODE": 66.3301, "ARG_OF_PERICENTER": 273.7383, "MEAN_ANOMALY": 86.3484, "EPHEMERIS_TYPE": 0, "CLASSIFICATION_TYPE": "U", "NORAD_CAT_ID": 66731, "ELEMENT_SET_NO": 999, "REV_AT_EPOCH": 333, "BSTAR": 0.00023875095, "MEAN_MOTION_DOT": 4.667e-05, "MEAN_MOTION_DDOT": 0}, "tle": {"line1": "1 66731U 25276BT  25354.72194661  .00004667  00000+0  23875-3 0  9990", "line2": "2 66731  97.4392  66.3301 0003204 273.7383  86.3484 15.17112963  3338"}}, "geometry": {"type": "Point", "coordinates": [77.41728988938016, -54.560526115447125]}}, {"type": "Feature", "properties": {"norad_id": 66732, "name": "FLOCK 4H-29", "group": "last-30-days", "lat": -43.113314023837425, "lon": 73.88198876471341, "alt_km": 520.3648718374798, "timestamp": "2025-12-21T05:44:50.290891+00:00", "meta": {"OBJECT_NAME": "FLOCK 4H-29", "OBJECT_ID": "2025-276BU", "EPOCH": "2025-12-20T14:06:42.795648", "MEAN_MOTION": 15.17318686, "ECCENTRICITY": 8.08e-05, "INCLINATION": 97.4512, "RA_OF_ASC_NODE": 66.2031, "ARG_OF_PERICENTER": 238.152, "MEAN_ANOMALY": 121.9635, "EPHEMERIS_TYPE": 0, "CLASSIFICATION_TYPE": "U", "NORAD_CAT_ID": 66732, "ELEMENT_SET_NO": 999, "REV_AT_EPOCH": 331, "BSTAR": 0.0025708, "MEAN_MOTION_DOT": 0.00051516, "MEAN_MOTION_DDOT": 0}, "tle": {"line1": "1 66732U 25276BU  25354.58799532  .00051516  00000+0  25708-2 0  9994", "line2": "2 66732  97.4512  66.2031 0000808 238.1520 121.9635 15.17318686  3319"}}, "geometry": {"type": "Point", "coordinates": [73.88198876471341, -43.113314023837425]}}, {"type": "Feature", "properties": {"norad_id": 66733, "name": "FLOCK 4H-30", "group": "last-30-days", "lat": -45.76991284534014, "lon": 74.57592881655607, "alt_km": 515.8893982983227, "timestamp": "2025-12-21T05:44:50.290902+00:00", "meta": {"OBJECT_NAME": "FLOCK 4H-30", "OBJECT_ID": "2025-276BV", "EPOCH": "2025-12-20T22:02:28.023360", "MEAN_MOTION": 15.1805052, "ECCENTRICITY": 0.00079211, "INCLINATION": 97.4405, "RA_OF_ASC_NODE": 66.5451, "ARG_OF_PERICENTER": 250.1182, "MEAN_ANOMALY": 109.9199, "EPHEMERIS_TYPE": 0, "CLASSIFICATION_TYPE": "U", "NORAD_CAT_ID": 66733, "ELEMENT_SET_NO": 999, "REV_AT_EPOCH": 336, "BSTAR": 0.0079948076, "MEAN_MOTION_DOT": 0.00166437, "MEAN_MOTION_DDOT": 0}, "tle": {"line1": "1 66733U 25276BV  25354.91837990  .00166437  00000+0  79948-2 0  9997", "line2": "2 66733  97.4405  66.5451 0007921 250.1182 109.9199 15.18050520  3368"}}, "geometry": {"type": "Point", "coordinates": [74.57592881655607, -45.76991284534014]}}, {"type": "Feature", "properties": {"norad_id": 66734, "name": "FLOCK 4H-31", "group": "last-30-days", "lat": -48.4065749909279, "lon": 75.30195535483874, "alt_km": 519.7208851449832, "timestamp": "2025-12-21T05:44:50.290912+00:00", "meta": {"OBJECT_NAME": "FLOCK 4H-31", "OBJECT_ID": "2025-276BW", "EPOCH": "2025-12-20T14:08:01.963104", "MEAN_MOTION": 15.17186159, "ECCENTRICITY": 0.0002581, "INCLINATION": 97.4397, "RA_OF_ASC_NODE": 66.1977, "ARG_OF_PERICENTER": 280.7322, "MEAN_ANOMALY": 79.3621, "EPHEMERIS_TYPE": 0, "CLASSIFICATION_TYPE": "U", "NORAD_CAT_ID": 66734, "ELEMENT_SET_NO": 999, "REV_AT_EPOCH": 331, "BSTAR": 0.00036266, "MEAN_MOTION_DOT": 7.14e-05, "MEAN_MOTION_DDOT": 0}, "tle": {"line1": "1 66734U 25276BW  25354.58891161  .00007140  00000+0  36266-3 0  9993", "line2": "2 66734  97.4397  66.1977 0002581 280.7322  79.3621 15.17186159  3312"}}, "geometry": {"type": "Point", "coordinates": [75.30195535483874, -48.4065749909279]}}, {"type": "Feature", "properties": {"norad_id": 66735, "name": "FLOCK 4H-32", "group": "last-30-days", "lat": -50.76844858384485, "lon": 76.06861741534348, "alt_km": 519.4341557067264, "timestamp": "2025-12-21T05:44:50.290922+00:00", "meta": {"OBJECT_NAME": "FLOCK 4H-32", "OBJECT_ID": "2025-276BX", "EPOCH": "2025-12-20T14:08:40.519104", "MEAN_MOTION": 15.17196131, "ECCENTRICITY": 0.0003479, "INCLINATION": 97.4439, "RA_OF_ASC_NODE": 66.2154, "ARG_OF_PERICENTER": 270.7049, "MEAN_ANOMALY": 89.3786, "EPHEMERIS_TYPE": 0, "CLASSIFICATION_TYPE": "U", "NORAD_CAT_ID": 66735, "ELEMENT_SET_NO": 999, "REV_AT_EPOCH": 331, "BSTAR": 0.00029512, "MEAN_MOTION_DOT": 5.799e-05, "MEAN_MOTION_DDOT": 0}, "tle": {"line1": "1 66735U 25276BX  25354.58935786  .00005799  00000+0  29512-3 0  9990", "line2": "2 66735  97.4439  66.2154 0003479 270.7049  89.3786 15.17196131  3314"}}, "geometry": {"type": "Point", "coordinates": [76.06861741534348, -50.76844858384485]}}]}